satname,norad_id,inclination_deg,eccentricity,mean_motion_rev_per_day,perigee_km,apogee_km,l1,l2
STARLINK-1540,46051,53.1593,0.0001469,15.30212067,474.17228764294396,476.18579189542834,1 46051U 20055AA  26114.73083572  .00002397  00000+0  93011-4 0  9995,2 46051  53.1593 259.9871 0001469  74.2225 285.8938 15.30212067316131
STARLINK-1541,46052,53.1593,0.0001864,15.59300464,388.4189296104414,390.94197195609377,1 46052U 20055AB  26114.91668980  .01186716  00000+0  13518-1 0  9998,2 46052  53.1593 257.0923 0001864  73.7334 256.5071 15.59300464  5760
STARLINK-1543,46053,53.1593,0.0001045,15.31687696,470.06096157608954,471.492384533758,1 46053U 20055AC  26114.91668980  .00027816  00000+0  90512-3 0  9994,2 46053  53.1593 259.1521 0001045  67.4663 279.8959 15.31687696  5706
STARLINK-1548,46054,53.1598,8.6e-05,15.30205124,474.61038315939277,475.78915708385375,1 46054U 20055AD  26114.73400566  .00004307  00000+0  15744-3 0  9993,2 46054  53.1598 260.0389 0000860  96.1883 263.9216 15.30205124316124
STARLINK-1554,46055,53.1593,0.0001165,15.3165783,470.0677958703491,471.66361350054103,1 46055U 20055AE  26114.71858461  .00020475  00000+0  67062-3 0  9997,2 46055  53.1593 260.0913 0001165  80.1852 279.9281 15.31657830316126
STARLINK-1564,46058,53.1532,0.0002023,15.30215485,473.7824106201151,476.55525816070985,1 46058U 20055AH  26114.66454464 -.00002390  00000+0 -68531-4 0  9990,2 46058  53.1532 260.8156 0002023 103.4907 256.6319 15.30215485316100
STARLINK-1570,46059,53.1589,9.56e-05,15.31718284,470.0307446849956,471.34023954548866,1 46059U 20055AJ  26114.61602995  .00006401  00000+0  21773-3 0  9991,2 46059  53.1589 260.4520 0000956  92.4034 267.7077 15.31718284316060
STARLINK-1572,46060,53.1592,0.0001337,15.30226118,474.2208041429003,476.0533696337343,1 46060U 20055AK  26114.84149793  .00005956  00000+0  21287-3 0  9994,2 46060  53.1592 259.7458 0001337  77.0063 283.1087 15.30226118316109
STARLINK-1573,46061,53.158,0.0001266,15.31676484,469.94301939248635,471.6771727972164,1 46061U 20055AL  26114.91668980  .00027625  00000+0  89932-3 0  9995,2 46061  53.1580 259.0225 0001266  71.1213 224.9301 15.31676484  5850
STARLINK-1577,46063,53.1603,0.0001033,15.31702368,470.0254480855365,471.44042461438676,1 46063U 20055AN  26114.69526942 -.00000075  00000+0  93556-5 0  9993,2 46063  53.1603 260.0441 0001033  84.8770 275.2350 15.31702368316119
STARLINK-1583,46064,53.159,8.45e-05,15.30216364,474.58710577913826,475.7453140216121,1 46064U 20055AP  26114.67499978  .00007207  00000+0  25508-3 0  9993,2 46064  53.1590 260.2668 0000845  95.9247 264.1850 15.30216364316106
STARLINK-1536,46070,53.1512,7.14e-05,15.29380772,477.17272431407764,478.15173244389007,1 46070U 20055AV  26114.63717072  .00006619  00000+0  24131-3 0  9991,2 46070  53.1512 248.1174 0000714 107.9068 252.2010 15.29380772316271
STARLINK-1542,46073,53.0863,0.0001518,15.14801818,520.5329121428458,522.6276663118551,1 46073U 20055AY  26114.91668980  .00041423  00000+0  22083-2 0  9993,2 46073  53.0863 248.9050 0001518  41.5024  45.2450 15.14801818  5581
STARLINK-1549,46074,53.0505,6.26e-05,15.26148819,486.90813673839057,487.7676941978061,1 46074U 20055AZ  26114.64539973  .00031202  00000+0  12003-2 0  9998,2 46074  53.0505 247.5689 0000626 351.4166   8.6820 15.26148819316269
STARLINK-1551,46075,53.1595,0.0001187,15.29412098,476.75484041248546,478.38238492493383,1 46075U 20055BA  26114.65326171 -.00012613  00000+0 -42475-3 0  9998,2 46075  53.1595 247.5403 0001187  80.5044 279.6091 15.29412098316279
STARLINK-1552,46076,53.1601,0.0001011,15.3020597,474.50437204129685,475.8901162254597,1 46076U 20055BB  26114.80296073  .00003751  00000+0  13868-3 0  9998,2 46076  53.1601 246.7824 0001011  79.1773 280.9341 15.30205970316280
STARLINK-1559,46077,53.0243,0.0001134,15.34159489,462.64235061455656,464.19401533005475,1 46077U 20055BC  26114.68442390  .00040586  00000+0  12150-2 0  9999,2 46077  53.0243 219.0620 0001134 289.9168  70.1711 15.34159489316630
STARLINK-1566,46079,53.1822,9.52e-05,15.30275171,474.3382138003544,475.64304930140224,1 46079U 20055BE  26114.91668980  .00485542  00000+0  15326-1 0  9994,2 46079  53.1822 246.2670 0000952  94.8005  67.6095 15.30275171  5749
STARLINK-1568,46080,53.0586,0.0003993,15.50271862,413.21879110309965,418.644534337147,1 46080U 20055BF  26114.51545463  .00033933  00000+0  59486-3 0  9992,2 46080  53.0586 173.6667 0003993 316.4143  43.6549 15.50271862317299
STARLINK-1578,46082,53.1485,0.0001035,15.29362324,477.0077795940915,478.42694144671896,1 46082U 20055BH  26114.68405488  .00000647  00000+0  34755-4 0  9993,2 46082  53.1485 247.7474 0001035  93.6526 266.4592 15.29362324316273
STARLINK-1579,46083,53.1592,7.21e-05,15.30202281,474.7141325797793,475.70238496609454,1 46083U 20055BJ  26114.74713409  .00005227  00000+0  18847-3 0  9998,2 46083  53.1592 247.1002 0000721  78.9635 281.1447 15.30202281316283
STARLINK-1593,46119,53.0345,0.0003996,15.9987751,272.0997558585332,277.41674974457146,1 46119U 20057C   26114.91668980  .00529002  13317-3  10198-2 0  9993,2 46119  53.0345  36.6314 0003996 166.3908 347.6287 15.99877510  5954
STARLINK-1621,46127,53.0341,0.0006459,16.12227315,236.4650831120034,245.01534869951047,1 46127U 20057L   26114.62808032  .01148396  85948-3  10327-2 0  9991,2 46127  53.0341   9.7031 0006459 233.4195 126.6245 16.12227315314395
STARLINK-1622,46128,53.0206,6.64e-05,15.7278367,350.4985998367356,351.39222198090374,1 46128U 20057M   26114.82779028  .00092876  00000+0  67053-3 0  9997,2 46128  53.0206 356.4207 0000664  28.2831 331.8222 15.72783670314607
STARLINK-1623,46129,53.0484,0.000173,15.66556985,367.59738846863,369.93181642307536,1 46129U 20057N   26114.91668980  .00036642  00000+0  34781-3 0  9993,2 46129  53.0484  31.5503 0001730 100.1530  20.5489 15.66556985  5937
STARLINK-1624,46130,53.037,0.0006726,15.84884715,312.14645756601567,321.15228419212235,1 46130U 20057P   26114.91668980  .00221271  00000+0  90679-3 0  9997,2 46130  53.0370   1.7898 0006726 154.1095 332.1243 15.84884715  5894
STARLINK-1596,46141,53.0397,0.000184,15.52108963,409.32043701065504,411.8186810243724,1 46141U 20057AA  26114.44229396  .00058669  00000+0  95519-3 0  9998,2 46141  53.0397  11.6865 0001840 139.2666 220.8480 15.52108963314369
STARLINK-1597,46142,53.0448,0.0004537,15.66027651,367.223107469993,373.3466254716286,1 46142U 20057AB  26114.28887867  .00073250  00000+0  70146-3 0  9996,2 46142  53.0448  74.2846 0004537  24.5905 335.5325 15.66027651313460
